[{"OBJECT_NAME":"COSMOS 2251 DEB","OBJECT_ID":"1993-036UA","EPOCH":"2026-03-06T23:24:13.553568","MEAN_MOTION":14.32872151,"ECCENTRICITY":0.0069381,"INCLINATION":73.9763,"RA_OF_ASC_NODE":259.0875,"ARG_OF_PERICENTER":52.7107,"MEAN_ANOMALY":97.2922,"EPHEMERIS_TYPE":0,"CLASSIFICATION_TYPE":"U","NORAD_CAT_ID":34481,"ELEMENT_SET_NO":999,"REV_AT_EPOCH":88655,"BSTAR":0.00041225,"MEAN_MOTION_DOT":1.13e-5,"MEAN_MOTION_DDOT":0},{"OBJECT_NAME":"COSMOS 2251 DEB","OBJECT_ID":"1993-036UB","EPOCH":"2026-03-06T10:06:21.145248","MEAN_MOTION":14.71592582,"ECCENTRICITY":0.0037614,"INCLINATION":74.0354,"RA_OF_ASC_NODE":61.2418,"ARG_OF_PERICENTER":104.1132,"MEAN_ANOMALY":61.1629,"EPHEMERIS_TYPE":0,"CLASSIFICATION_TYPE":"U","NORAD_CAT_ID":34482,"ELEMENT_SET_NO":999,"REV_AT_EPOCH":89417,"BSTAR":0.0021525639,"MEAN_MOTION_DOT":0.00013531,"MEAN_MOTION_DDOT":0},{"OBJECT_NAME":"COSMOS 2251 DEB","OBJECT_ID":"1993-036UE","EPOCH":"2026-03-06T23:39:25.661952","MEAN_MOTION":13.54824565,"ECCENTRICITY":0.0380003,"INCLINATION":73.914,"RA_OF_ASC_NODE":67.6339,"ARG_OF_PERICENTER":80.5301,"MEAN_ANOMALY":313.3084,"EPHEMERIS_TYPE":0,"CLASSIFICATION_TYPE":"U","NORAD_CAT_ID":34544,"ELEMENT_SET_NO":999,"REV_AT_EPOCH":84023,"BSTAR":0.00051762,"MEAN_MOTION_DOT":5.45e-6,"MEAN_MOTION_DDOT":0},{"OBJECT_NAME":"COSMOS 2251 DEB","OBJECT_ID":"1993-036UG","EPOCH":"2026-03-06T19:50:04.155936","MEAN_MOTION":14.45842016,"ECCENTRICITY":0.0020076,"INCLINATION":74.0282,"RA_OF_ASC_NODE":92.3448,"ARG_OF_PERICENTER":155.7254,"MEAN_ANOMALY":255.8592,"EPHEMERIS_TYPE":0,"CLASSIFICATION_TYPE":"U","NORAD_CAT_ID":34546,"ELEMENT_SET_NO":999,"REV_AT_EPOCH":89241,"BSTAR":0.00059035,"MEAN_MOTION_DOT":2.075e-5,"MEAN_MOTION_DDOT":0},{"OBJECT_NAME":"COSMOS 2251 DEB","OBJECT_ID":"1993-036UH","EPOCH":"2026-03-06T14:57:15.230880","MEAN_MOTION":14.74460677,"ECCENTRICITY":0.00162917,"INCLINATION":74.03,"RA_OF_ASC_NODE":297.1514,"ARG_OF_PERICENTER":353.198,"MEAN_ANOMALY":6.897,"EPHEMERIS_TYPE":0,"CLASSIFICATION_TYPE":"U","NORAD_CAT_ID":34547,"ELEMENT_SET_NO":999,"REV_AT_EPOCH":89757,"BSTAR":0.0015053942,"MEAN_MOTION_DOT":0.00010005,"MEAN_MOTION_DDOT":0},{"OBJECT_NAME":"COSMOS 2251 DEB","OBJECT_ID":"1993-036UP","EPOCH":"2026-03-07T01:21:13.188096","MEAN_MOTION":14.58786926,"ECCENTRICITY":0.0015671,"INCLINATION":74.0264,"RA_OF_ASC_NODE":31.3388,"ARG_OF_PERICENTER":92.4113,"MEAN_ANOMALY":28.0422,"EPHEMERIS_TYPE":0,"CLASSIFICATION_TYPE":"U","NORAD_CAT_ID":34553,"ELEMENT_SET_NO":999,"REV_AT_EPOCH":89325,"BSTAR":0.0015629,"MEAN_MOTION_DOT":7.295e-5,"MEAN_MOTION_DDOT":0},{"OBJECT_NAME":"COSMOS 2251 DEB","OBJECT_ID":"1993-036UQ","EPOCH":"2026-03-06T15:05:42.830016","MEAN_MOTION":14.3813106,"ECCENTRICITY":0.00234092,"INCLINATION":74.0387,"RA_OF_ASC_NODE":144.506,"ARG_OF_PERICENTER":194.2686,"MEAN_ANOMALY":328.2602,"EPHEMERIS_TYPE":0,"CLASSIFICATION_TYPE":"U","NORAD_CAT_ID":34554,"ELEMENT_SET_NO":999,"REV_AT_EPOCH":88961,"BSTAR":0.00036508965,"MEAN_MOTION_DOT":1.084e-5,"MEAN_MOTION_DDOT":0},{"OBJECT_NAME":"COSMOS 2251 DEB","OBJECT_ID":"1993-036US","EPOCH":"2026-03-07T03:57:26.618688","MEAN_MOTION":14.80879514,"ECCENTRICITY":0.000572,"INCLINATION":74.016,"RA_OF_ASC_NODE":318.5299,"ARG_OF_PERICENTER":349.1651,"MEAN_ANOMALY":164.6831,"EPHEMERIS_TYPE":0,"CLASSIFICATION_TYPE":"U","NORAD_CAT_ID":34556,"ELEMENT_SET_NO":999,"REV_AT_EPOCH":89577,"BSTAR":0.0019054,"MEAN_MOTION_DOT":0.00014723,"MEAN_MOTION_DDOT":0},{"OBJECT_NAME":"COSMOS 2251 DEB","OBJECT_ID":"1993-036UW","EPOCH":"2026-03-07T04:32:38.302944","MEAN_MOTION":14.74590847,"ECCENTRICITY":0.0011722,"INCLINATION":74.0191,"RA_OF_ASC_NODE":337.3352,"ARG_OF_PERICENTER":37.7891,"MEAN_ANOMALY":122.8724,"EPHEMERIS_TYPE":0,"CLASSIFICATION_TYPE":"U","NORAD_CAT_ID":34560,"ELEMENT_SET_NO":999,"REV_AT_EPOCH":89495,"BSTAR":0.0022261,"MEAN_MOTION_DOT":0.00014852,"MEAN_MOTION_DDOT":0},{"OBJECT_NAME":"COSMOS 2251 DEB","OBJECT_ID":"1993-036UZ","EPOCH":"2026-03-06T18:23:45.770208","MEAN_MOTION":14.46858432,"ECCENTRICITY":0.0011651,"INCLINATION":74.0388,"RA_OF_ASC_NODE":46.7821,"ARG_OF_PERICENTER":130.2277,"MEAN_ANOMALY":296.4371,"EPHEMERIS_TYPE":0,"CLASSIFICATION_TYPE":"U","NORAD_CAT_ID":34563,"ELEMENT_SET_NO":999,"REV_AT_EPOCH":89412,"BSTAR":0.00066821,"MEAN_MOTION_DOT":2.399e-5,"MEAN_MOTION_DDOT":0},{"OBJECT_NAME":"COSMOS 2251 DEB","OBJECT_ID":"1993-036VA","EPOCH":"2026-03-06T11:25:04.088928","MEAN_MOTION":14.4085627,"ECCENTRICITY":0.00187411,"INCLINATION":74.0304,"RA_OF_ASC_NODE":83.0678,"ARG_OF_PERICENTER":176.0632,"MEAN_ANOMALY":334.592,"EPHEMERIS_TYPE":0,"CLASSIFICATION_TYPE":"U","NORAD_CAT_ID":34564,"ELEMENT_SET_NO":999,"REV_AT_EPOCH":89212,"BSTAR":0.00029844087,"MEAN_MOTION_DOT":9.32e-6,"MEAN_MOTION_DDOT":0},{"OBJECT_NAME":"COSMOS 2251 DEB","OBJECT_ID":"1993-036VD","EPOCH":"2026-03-06T22:35:42.742752","MEAN_MOTION":14.24115249,"ECCENTRICITY":0.0072334,"INCLINATION":74.0443,"RA_OF_ASC_NODE":5.2199,"ARG_OF_PERICENTER":58.3917,"MEAN_ANOMALY":13.958,"EPHEMERIS_TYPE":0,"CLASSIFICATION_TYPE":"U","NORAD_CAT_ID":34567,"ELEMENT_SET_NO":999,"REV_AT_EPOCH":88323,"BSTAR":0.00025237,"MEAN_MOTION_DOT":5.72e-6,"MEAN_MOTION_DDOT":0},{"OBJECT_NAME":"COSMOS 2251 DEB","OBJECT_ID":"1993-036VF","EPOCH":"2026-03-06T09:14:16.918656","MEAN_MOTION":14.25038256,"ECCENTRICITY":0.01591457,"INCLINATION":73.9904,"RA_OF_ASC_NODE":46.8425,"ARG_OF_PERICENTER":216.9268,"MEAN_ANOMALY":297.1594,"EPHEMERIS_TYPE":0,"CLASSIFICATION_TYPE":"U","NORAD_CAT_ID":34569,"ELEMENT_SET_NO":999,"REV_AT_EPOCH":88159,"BSTAR":0.0005817979,"MEAN_MOTION_DOT":1.528e-5,"MEAN_MOTION_DDOT":0},{"OBJECT_NAME":"COSMOS 2251 DEB","OBJECT_ID":"1993-036VG","EPOCH":"2026-03-06T11:04:20.397216","MEAN_MOTION":13.99994557,"ECCENTRICITY":0.01924193,"INCLINATION":73.9559,"RA_OF_ASC_NODE":72.6555,"ARG_OF_PERICENTER":297.1223,"MEAN_ANOMALY":215.9816,"EPHEMERIS_TYPE":0,"CLASSIFICATION_TYPE":"U","NORAD_CAT_ID":34570,"ELEMENT_SET_NO":999,"REV_AT_EPOCH":86772,"BSTAR":0.00085967093,"MEAN_MOTION_DOT":1.458e-5,"MEAN_MOTION_DDOT":0},{"OBJECT_NAME":"COSMOS 2251 DEB","OBJECT_ID":"1993-036VH","EPOCH":"2026-03-05T22:15:30.989664","MEAN_MOTION":14.50706484,"ECCENTRICITY":0.00583684,"INCLINATION":74.0407,"RA_OF_ASC_NODE":26.292,"ARG_OF_PERICENTER":40.1741,"MEAN_ANOMALY":320.3712,"EPHEMERIS_TYPE":0,"CLASSIFICATION_TYPE":"U","NORAD_CAT_ID":34571,"ELEMENT_SET_NO":999,"REV_AT_EPOCH":88499,"BSTAR":0.0031896513,"MEAN_MOTION_DOT":0.00012813,"MEAN_MOTION_DDOT":0},{"OBJECT_NAME":"COSMOS 2251 DEB","OBJECT_ID":"1993-036VJ","EPOCH":"2026-03-06T03:02:38.245056","MEAN_MOTION":14.51771226,"ECCENTRICITY":0.00604536,"INCLINATION":74.0103,"RA_OF_ASC_NODE":318.4294,"ARG_OF_PERICENTER":11.6288,"MEAN_ANOMALY":142.6271,"EPHEMERIS_TYPE":0,"CLASSIFICATION_TYPE":"U","NORAD_CAT_ID":34572,"ELEMENT_SET_NO":999,"REV_AT_EPOCH":88587,"BSTAR":0.0018778716,"MEAN_MOTION_DOT":7.711e-5,"MEAN_MOTION_DDOT":0}]
